     2.100          NAVIGATION                              RINEX VERSION / TYPE
fic2rin                                 09/22/2013 00:17:56 PGM / RUN BY / DATE
                                                            END OF HEADER
15 13  9 21 10  0  0.0 -.138156581670D-03 -.181898940355D-11  .000000000000D+00
     .560000000000D+02  .343125000000D+02  .539129599769D-08 -.108707890461D+01
     .168196856976D-05  .554661836941D-02  .205822288990D-05  .515356079674D+04
     .554400000000D+06  .577419996262D-07 -.141063320279D+01 -.689178705215D-07
     .939094607254D+00  .323625000000D+03  .156749264230D+00 -.877143679412D-08
     .243938732456D-09  .100000000000D+01  .175800000000D+04  .000000000000D+00
     .240000000000D+01  .000000000000D+00 -.977888703346D-08  .560000000000D+02
     .547206000000D+06  .400000000000D+01
16 13  9 21 10  0  0.0 -.246251001954D-03  .795807864051D-12  .000000000000D+00
     .550000000000D+02  .333750000000D+02  .387694720470D-08  .613732935229D+00
     .181794166565D-05  .707352824975D-02  .115670263767D-04  .515371854782D+04
     .554400000000D+06  .763684511185D-07  .767418167281D+00  .102445483208D-06
     .986019423575D+00  .165968750000D+03  .138938537976D+00 -.773175062988D-08
     .359300680601D-09  .100000000000D+01  .175800000000D+04  .000000000000D+00
     .240000000000D+01  .000000000000D+00 -.977888703346D-08  .550000000000D+02
     .547206000000D+06  .400000000000D+01
17 13  9 21 10  0  0.0 -.234963372350D-04 -.386535248253D-11  .000000000000D+00
     .170000000000D+02  .105937500000D+02  .500699427569D-08 -.342479781178D+00
     .592321157455D-06  .852190668229D-02  .406987965107D-05  .515367387390D+04
     .554400000000D+06 -.186264514923D-07  .180298887032D+01  .987201929092D-07
     .966007501541D+00  .304843750000D+03 -.219055428282D+01 -.855321341853D-08
     .350014579512D-10  .100000000000D+01  .175800000000D+04  .000000000000D+00
     .240000000000D+01  .000000000000D+00 -.102445483208D-07  .170000000000D+02
     .547206000000D+06  .400000000000D+01
18 13  9 21 10  0  0.0  .275249127299D-03  .204636307899D-11  .000000000000D+00
     .980000000000D+02  .768437500000D+02  .507235414105D-08  .117083900777D+01
     .406056642532D-05  .145898018964D-01  .108312815428D-04  .515364287949D+04
     .554400000000D+06 -.273808836937D-06 -.242964167043D+01  .242143869400D-07
     .927051660817D+00  .153937500000D+03 -.207842228499D+01 -.851928343378D-08
     .158220876249D-09  .100000000000D+01  .175800000000D+04  .000000000000D+00
     .240000000000D+01  .000000000000D+00 -.107102096081D-07  .980000000000D+02
     .547206000000D+06  .400000000000D+01
19 13  9 21 10  0  0.0 -.405763275921D-03 -.284217094304D-11  .000000000000D+00
     .940000000000D+02  .250000000000D+00  .492913388964D-08 -.117901091790D+01
     .447034835815D-07  .954732217360D-02  .371970236301D-05  .515373219109D+04
     .554400000000D+06  .173225998878D-06  .185461751101D+01 -.149011611938D-06
     .963220023786D+00  .309000000000D+03  .382656122752D+00 -.837284876276D-08
     .196436753808D-10  .100000000000D+01  .175800000000D+04  .000000000000D+00
     .240000000000D+01  .000000000000D+00 -.144354999065D-07  .940000000000D+02
     .547206000000D+06  .400000000000D+01
21 13  9 21 10  0  0.0 -.319764949381D-03 -.193267624127D-11  .000000000000D+00
     .116000000000D+03 -.695312500000D+02  .499449375500D-08  .219139584546D+01
    -.393018126488D-05  .205702575622D-01  .918656587601D-05  .515363329506D+04
     .554400000000D+06 -.260770320892D-07  .280721585569D+01 -.411644577980D-06
     .932136834281D+00  .186718750000D+03 -.210455235864D+01 -.810498046211D-08
    -.522521765129D-09  .100000000000D+01  .175800000000D+04  .000000000000D+00
     .240000000000D+01  .000000000000D+00 -.111758708954D-07  .116000000000D+03
     .547206000000D+06  .400000000000D+01
22 13  9 21 10  0  0.0  .185842625797D-03  .193267624127D-11  .000000000000D+00
     .600000000000D+02  .859062500000D+02  .513842832188D-08  .591192322722D+00
     .446289777756D-05  .678097805940D-02  .104308128357D-04  .515365278244D+04
     .554400000000D+06 -.160187482834D-06 -.242726644153D+01  .204890966415D-07
     .924807093905D+00  .160593750000D+03 -.203602970737D+01 -.840392148563D-08
     .213937482783D-09  .100000000000D+01  .175800000000D+04  .000000000000D+00
     .240000000000D+01  .000000000000D+00 -.172294676304D-07  .600000000000D+02
     .547206000000D+06  .400000000000D+01
23 13  9 21 10  0  0.0  .462178140879D-04 -.341060513165D-11  .000000000000D+00
     .830000000000D+02  .310937500000D+02  .513342811360D-08 -.161047695273D+01
     .134296715260D-05  .888936815318D-02  .175274908543D-05  .515365205193D+04
     .554400000000D+06  .409781932831D-07 -.136767928887D+01 -.124797224998D-06
     .954071886478D+00  .339750000000D+03 -.282278543680D+01 -.863928843247D-08
     .318941856637D-09  .100000000000D+01  .175800000000D+04  .000000000000D+00
     .340000000000D+01  .000000000000D+00 -.200234353542D-07  .830000000000D+02
     .547206000000D+06  .400000000000D+01
24 13  9 21 10  0  0.0 -.141491182148D-04 -.682121026330D-12  .000000000000D+00
     .240000000000D+02 -.930625000000D+02  .461590655675D-08 -.221822734884D+01
    -.492483377457D-05  .105548801366D-02  .811554491520D-05  .515365934944D+04
     .554400000000D+06 -.931322574615D-08 -.340831000819D+00 -.689178705215D-07
     .958578053058D+00  .222562500000D+03  .170793194405D+00 -.817855495536D-08
    -.325727853587D-09  .100000000000D+01  .175800000000D+04  .000000000000D+00
     .240000000000D+01  .000000000000D+00  .325962901115D-08  .240000000000D+02
     .547206000000D+06  .400000000000D+01
25 13  9 21 10  0  0.0  .149596016854D-03  .409272615798D-11  .000000000000D+00
     .320000000000D+02  .274687500000D+02  .410981404739D-08  .181315069428D+01
     .138953328133D-05  .274761929177D-02  .114515423775D-04  .515372492790D+04
     .554400000000D+06 -.117346644402D-06  .709409699887D+00 -.186264514923D-08
     .974194944935D+00  .165031250000D+03  .738143960830D+00 -.777603818892D-08
     .362872257943D-09  .100000000000D+01  .175800000000D+04  .000000000000D+00
     .240000000000D+01  .000000000000D+00  .558793544769D-08  .320000000000D+02
     .547206000000D+06  .400000000000D+01
26 13  9 21 10  0  0.0  .200629699975D-03  .185309545486D-10  .000000000000D+00
     .790000000000D+02  .175937500000D+02  .452375986133D-08 -.160292785510D+01
     .134482979774D-05  .210674104746D-01  .190548598766D-05  .515368238449D+04
     .554400000000D+06  .415369868279D-06 -.128451772109D+01  .270083546638D-06
     .977288629000D+00  .346375000000D+03  .125156610871D+01 -.819105547605D-08
     .152149194768D-09  .100000000000D+01  .175800000000D+04  .000000000000D+00
     .240000000000D+01  .000000000000D+00 -.558793544769D-08  .790000000000D+02
     .547206000000D+06  .400000000000D+01
27 13  9 21 10  0  0.0 -.390969216824D-04 -.443378667114D-11  .000000000000D+00
     .200000000000D+01  .133750000000D+02  .501413743038D-08 -.115539013788D+01
     .590458512306D-06  .434979563579D-03  .395067036152D-05  .515365604401D+04
     .554400000000D+06  .260770320892D-07  .175901134385D+01  .186264514923D-08
     .960613255912D+00  .304250000000D+03  .920712911388D+00 -.843535136624D-08
     .414302971667D-10  .100000000000D+01  .175800000000D+04  .000000000000D+00
     .240000000000D+01  .000000000000D+00  .186264514923D-08  .200000000000D+01
     .547206000000D+06  .400000000000D+01
28 13  9 21 10  0  0.0  .294346362352D-03  .318323145621D-11  .000000000000D+00
     .140000000000D+02  .244375000000D+02  .401338145916D-08  .448716780912D+00
     .143051147461D-05  .187529155519D-01  .117644667625D-04  .515365637589D+04
     .554400000000D+06 -.193715095520D-06  .773515699074D+00  .372529029846D-07
     .984481408059D+00  .171437500000D+03 -.176252232530D+01 -.807783647431D-08
     .319299014371D-09  .100000000000D+01  .175800000000D+04  .000000000000D+00
     .240000000000D+01  .000000000000D+00 -.107102096081D-07  .140000000000D+02
     .547206000000D+06  .400000000000D+01
29 13  9 21 10  0  0.0  .472452491522D-03  .318323145621D-11  .000000000000D+00
     .390000000000D+02  .131875000000D+02  .484948771491D-08  .249433754013D+01
     .638887286186D-06  .146677775774D-02  .388361513615D-05  .515357024574D+04
     .554400000000D+06  .353902578354D-07  .181186025278D+01  .316649675369D-07
     .966678465993D+00  .306968750000D+03 -.987024910578D+00 -.832427531091D-08
     .678599694973D-11  .100000000000D+01  .175800000000D+04  .000000000000D+00
     .240000000000D+01  .000000000000D+00 -.931322574615D-08  .390000000000D+02
     .547206000000D+06  .400000000000D+01
31 13  9 21 10  0  0.0  .326328910887D-03  .795807864051D-12  .000000000000D+00
     .400000000000D+02 -.961250000000D+02  .416231623432D-08 -.312599770256D+01
    -.482425093651D-05  .794318155386D-02  .891834497452D-05  .515367348289D+04
     .554400000000D+06 -.763684511185D-07 -.305332076478D+00  .186264514923D-06
     .980109183333D+00  .216593750000D+03 -.734063826716D+00 -.778889586735D-08
    -.357157734196D-09  .100000000000D+01  .175800000000D+04  .000000000000D+00
     .240000000000D+01  .000000000000D+00 -.130385160446D-07  .400000000000D+02
     .547206000000D+06  .400000000000D+01
32 13  9 21 10  0  0.0 -.547084491700D-03  .295585778076D-11  .000000000000D+00
     .930000000000D+02  .112375000000D+03  .440696928225D-08 -.266407256493D+01
     .585056841373D-05  .116035705432D-01  .110287219286D-04  .515360271835D+04
     .554400000000D+06 -.152736902237D-06 -.234084040716D+01  .800937414169D-07
     .948915654694D+00  .160750000000D+03 -.292496690724D+00 -.796997483859D-08
     .410731394325D-09  .100000000000D+01  .175800000000D+04  .000000000000D+00
     .240000000000D+01  .000000000000D+00 -.279396772385D-08  .930000000000D+02
     .547206000000D+06  .400000000000D+01
